HTV-X1                  
1 66174U 25241A   26090.17020543  .00001760  00000+0  66940-4 0  9999
2 66174  51.6380 329.5427 0007217 256.0151 104.0028 15.32485858 24233
SZ-21 MODULE            
1 66515U 25246C   26090.00956182  .00051196  00000+0  40916-3 0  9994
2 66515  41.4738  71.9551 0002208 216.3833 143.6860 15.70237723 21422
SHENZHOU-22             
1 66645U 25272A   26090.14524119  .00027765  00000+0  31487-3 0  9991
2 66645  41.4666  77.5044 0003732  76.0668 284.0586 15.61737938281218
SOYUZ-MS 28             
1 66664U 25275A   26090.13309952  .00011434  00000+0  21777-3 0  9997
2 66664  51.6341 326.3497 0006203 253.7499 106.2807 15.48671303559735
DUPLEX                  
1 66906U 98067XS  26089.96050600  .00034903  00000+0  46740-3 0  9990
2 66906  51.6299 322.9482 0003050 209.9904 150.0914 15.57650066 18440
ISS OBJECT XT           
1 66907U 98067XT  26089.99206507  .00266250  00000+0  15250-2 0  9996
2 66907  51.6233 316.3688 0006496 218.8764 141.1770 15.77474142 18536
ISS OBJECT XU           
1 66908U 98067XU  26089.98791626  .00279310  00000+0  15782-2 0  9998
2 66908  51.6237 316.3364 0006724 218.1981 141.8543 15.77741414 18534
SILVERSAT               
1 66909U 98067XV  26089.99737683  .00407567  00000+0  17359-2 0  9992
2 66909  51.6200 314.8852 0007666 225.3563 134.6816 15.83552073 18555
ISS OBJECT XW           
1 66910U 98067XW  26090.00129125  .00227945  00000+0  14085-2 0  9997
2 66910  51.6221 316.4232 0006710 215.2367 144.8190 15.75865069 18538
ISS OBJECT XX           
1 66911U 98067XX  26089.99227632  .00643331  17468-3  19754-2 0  9995
2 66911  51.6173 313.3117 0009699 230.4896 129.5254 15.91183694 18567
ISS OBJECT XY           
1 66912U 98067XY  26090.02560913  .00135589  00000+0  11755-2 0  9998
2 66912  51.6266 318.8691 0004598 214.4889 145.5809 15.68176459 18496
KNACKSAT-2              
1 67683U 98067XZ  26089.90238054  .00048681  00000+0  75035-3 0  9995
2 67683  51.6321 326.3110 0010183 263.1970  96.7862 15.53622032  8080
